<?xml version="1.0"?><TrainingCenterDatabase xmlns="http://www.garmin.com/xmlschemas/TrainingCenterDatabase/v2"><Activities><Activity Sport="Running"><Id>2026-10-05T13:08:00Z</Id><Lap StartTime="2026-10-05T13:08:00Z"><TotalTimeSeconds>3000</TotalTimeSeconds><DistanceMeters>8046.72</DistanceMeters><AverageHeartRateBpm><Value>130</Value></AverageHeartRateBpm><MaximumHeartRateBpm><Value>149</Value></MaximumHeartRateBpm><Track><Trackpoint><Time>2026-10-05T13:08:00Z</Time><DistanceMeters>0</DistanceMeters><HeartRateBpm><Value>125</Value></HeartRateBpm></Trackpoint><Trackpoint><Time>2026-10-05T13:58:00Z</Time><DistanceMeters>8046.72</DistanceMeters><HeartRateBpm><Value>135</Value></HeartRateBpm></Trackpoint></Track></Lap></Activity></Activities></TrainingCenterDatabase>