<?xml version="1.0"?><TrainingCenterDatabase xmlns="http://www.garmin.com/xmlschemas/TrainingCenterDatabase/v2"><Activities><Activity Sport="Running"><Id>2026-10-02T15:00:00Z</Id><Lap StartTime="2026-10-02T15:00:00Z"><TotalTimeSeconds>1800</TotalTimeSeconds><DistanceMeters>5000</DistanceMeters><AverageHeartRateBpm><Value>130</Value></AverageHeartRateBpm><MaximumHeartRateBpm><Value>149</Value></MaximumHeartRateBpm><Track><Trackpoint><Time>2026-10-02T15:00:00Z</Time><DistanceMeters>0</DistanceMeters><HeartRateBpm><Value>125</Value></HeartRateBpm></Trackpoint><Trackpoint><Time>2026-10-02T15:30:00Z</Time><DistanceMeters>5000</DistanceMeters><HeartRateBpm><Value>135</Value></HeartRateBpm></Trackpoint></Track></Lap></Activity></Activities></TrainingCenterDatabase>